[{"OBJECT_NAME":"ONEWEB-0594","OBJECT_ID":"2022-166U","EPOCH":"2025-09-15T13:49:58.768032","MEAN_MOTION":13.21824207,"ECCENTRICITY":0.0001878,"INCLINATION":87.9204,"RA_OF_ASC_NODE":298.8001,"ARG_OF_PERICENTER":93.6834,"MEAN_ANOMALY":266.4515,"EPHEMERIS_TYPE":0,"CLASSIFICATION_TYPE":"U","NORAD_CAT_ID":54660,"ELEMENT_SET_NO":999,"REV_AT_EPOCH":13528,"BSTAR":-0.0001616385,"MEAN_MOTION_DOT":-5.4e-7,"MEAN_MOTION_DDOT":0},{"OBJECT_NAME":"ONEWEB-0595","OBJECT_ID":"2022-166V","EPOCH":"2025-09-15T11:29:09.470112","MEAN_MOTION":13.21823221,"ECCENTRICITY":0.00019093,"INCLINATION":87.9204,"RA_OF_ASC_NODE":298.7948,"ARG_OF_PERICENTER":100.3137,"MEAN_ANOMALY":259.8212,"EPHEMERIS_TYPE":0,"CLASSIFICATION_TYPE":"U","NORAD_CAT_ID":54661,"ELEMENT_SET_NO":999,"REV_AT_EPOCH":13524,"BSTAR":5.4726249e-5,"MEAN_MOTION_DOT":3.6e-7,"MEAN_MOTION_DDOT":0},{"OBJECT_NAME":"ONEWEB-0596","OBJECT_ID":"2022-166W","EPOCH":"2025-09-15T14:28:34.313952","MEAN_MOTION":13.21823621,"ECCENTRICITY":0.00020026,"INCLINATION":87.9202,"RA_OF_ASC_NODE":298.7852,"ARG_OF_PERICENTER":96.1019,"MEAN_ANOMALY":264.0343,"EPHEMERIS_TYPE":0,"CLASSIFICATION_TYPE":"U","NORAD_CAT_ID":54662,"ELEMENT_SET_NO":999,"REV_AT_EPOCH":13526,"BSTAR":0.00025517107,"MEAN_MOTION_DOT":1.18e-6,"MEAN_MOTION_DDOT":0},{"OBJECT_NAME":"ONEWEB-0597","OBJECT_ID":"2022-166X","EPOCH":"2025-09-15T14:01:20.262720","MEAN_MOTION":13.21823638,"ECCENTRICITY":0.00019773,"INCLINATION":87.9206,"RA_OF_ASC_NODE":298.7924,"ARG_OF_PERICENTER":91.4068,"MEAN_ANOMALY":268.7292,"EPHEMERIS_TYPE":0,"CLASSIFICATION_TYPE":"U","NORAD_CAT_ID":54663,"ELEMENT_SET_NO":999,"REV_AT_EPOCH":13526,"BSTAR":-4.648e-6,"MEAN_MOTION_DOT":1.1e-7,"MEAN_MOTION_DDOT":0},{"OBJECT_NAME":"ONEWEB-0600","OBJECT_ID":"2022-166Y","EPOCH":"2025-09-15T13:36:20.880576","MEAN_MOTION":13.21823689,"ECCENTRICITY":0.00019175,"INCLINATION":87.9197,"RA_OF_ASC_NODE":298.789,"ARG_OF_PERICENTER":89.6017,"MEAN_ANOMALY":270.5337,"EPHEMERIS_TYPE":0,"CLASSIFICATION_TYPE":"U","NORAD_CAT_ID":54664,"ELEMENT_SET_NO":999,"REV_AT_EPOCH":13523,"BSTAR":-6.2525883e-5,"MEAN_MOTION_DOT":-1.3e-7,"MEAN_MOTION_DDOT":0},{"OBJECT_NAME":"ONEWEB-0601","OBJECT_ID":"2022-166Z","EPOCH":"2025-09-15T11:35:57.208992","MEAN_MOTION":13.21822926,"ECCENTRICITY":0.00021688,"INCLINATION":87.9203,"RA_OF_ASC_NODE":298.8226,"ARG_OF_PERICENTER":88.1082,"MEAN_ANOMALY":272.03,"EPHEMERIS_TYPE":0,"CLASSIFICATION_TYPE":"U","NORAD_CAT_ID":54665,"ELEMENT_SET_NO":999,"REV_AT_EPOCH":13541,"BSTAR":9.45828e-6,"MEAN_MOTION_DOT":1.7e-7,"MEAN_MOTION_DDOT":0},{"OBJECT_NAME":"ONEWEB-0602","OBJECT_ID":"2022-166AA","EPOCH":"2025-09-15T14:22:54.741216","MEAN_MOTION":13.21824095,"ECCENTRICITY":0.00017469,"INCLINATION":87.9204,"RA_OF_ASC_NODE":298.8016,"ARG_OF_PERICENTER":85.083,"MEAN_ANOMALY":275.0504,"EPHEMERIS_TYPE":0,"CLASSIFICATION_TYPE":"U","NORAD_CAT_ID":54666,"ELEMENT_SET_NO":999,"REV_AT_EPOCH":13527,"BSTAR":6.4288797e-5,"MEAN_MOTION_DOT":4.0e-7,"MEAN_MOTION_DDOT":0},{"OBJECT_NAME":"ONEWEB-0603","OBJECT_ID":"2022-166AB","EPOCH":"2025-09-15T14:30:52.636032","MEAN_MOTION":13.21827758,"ECCENTRICITY":0.00020058,"INCLINATION":87.9205,"RA_OF_ASC_NODE":298.7346,"ARG_OF_PERICENTER":91.7054,"MEAN_ANOMALY":268.4309,"EPHEMERIS_TYPE":0,"CLASSIFICATION_TYPE":"U","NORAD_CAT_ID":54667,"ELEMENT_SET_NO":999,"REV_AT_EPOCH":13520,"BSTAR":0.00010359192,"MEAN_MOTION_DOT":5.6e-7,"MEAN_MOTION_DDOT":0},{"OBJECT_NAME":"ONEWEB-0604","OBJECT_ID":"2022-166AC","EPOCH":"2025-09-15T14:12:41.323680","MEAN_MOTION":13.21824341,"ECCENTRICITY":0.00019616,"INCLINATION":87.9205,"RA_OF_ASC_NODE":298.762,"ARG_OF_PERICENTER":88.4264,"MEAN_ANOMALY":271.7094,"EPHEMERIS_TYPE":0,"CLASSIFICATION_TYPE":"U","NORAD_CAT_ID":54668,"ELEMENT_SET_NO":999,"REV_AT_EPOCH":13516,"BSTAR":4.3032973e-5,"MEAN_MOTION_DOT":3.1e-7,"MEAN_MOTION_DDOT":0},{"OBJECT_NAME":"ONEWEB-0605","OBJECT_ID":"2022-166AD","EPOCH":"2025-09-15T14:03:38.716992","MEAN_MOTION":13.21828379,"ECCENTRICITY":0.00025782,"INCLINATION":87.9202,"RA_OF_ASC_NODE":298.7931,"ARG_OF_PERICENTER":89.9494,"MEAN_ANOMALY":270.1936,"EPHEMERIS_TYPE":0,"CLASSIFICATION_TYPE":"U","NORAD_CAT_ID":54669,"ELEMENT_SET_NO":999,"REV_AT_EPOCH":13523,"BSTAR":-0.00020569034,"MEAN_MOTION_DOT":-7.2e-7,"MEAN_MOTION_DDOT":0},{"OBJECT_NAME":"ONEWEB-0606","OBJECT_ID":"2022-166AE","EPOCH":"2025-09-15T14:35:24.718272","MEAN_MOTION":13.21824972,"ECCENTRICITY":0.00018679,"INCLINATION":87.9203,"RA_OF_ASC_NODE":298.7996,"ARG_OF_PERICENTER":100.3868,"MEAN_ANOMALY":259.7477,"EPHEMERIS_TYPE":0,"CLASSIFICATION_TYPE":"U","NORAD_CAT_ID":54670,"ELEMENT_SET_NO":999,"REV_AT_EPOCH":13529,"BSTAR":0.00025289794,"MEAN_MOTION_DOT":1.17e-6,"MEAN_MOTION_DDOT":0},{"OBJECT_NAME":"ONEWEB-0607","OBJECT_ID":"2022-166AF","EPOCH":"2025-09-15T13:47:43.099296","MEAN_MOTION":13.21823128,"ECCENTRICITY":0.00019788,"INCLINATION":87.9201,"RA_OF_ASC_NODE":298.7701,"ARG_OF_PERICENTER":89.9848,"MEAN_ANOMALY":270.1513,"EPHEMERIS_TYPE":0,"CLASSIFICATION_TYPE":"U","NORAD_CAT_ID":54671,"ELEMENT_SET_NO":999,"REV_AT_EPOCH":13526,"BSTAR":-0.00018035002,"MEAN_MOTION_DOT":-6.1e-7,"MEAN_MOTION_DDOT":0},{"OBJECT_NAME":"ONEWEB-0608","OBJECT_ID":"2022-166AG","EPOCH":"2025-09-15T13:56:47.320800","MEAN_MOTION":13.21824714,"ECCENTRICITY":0.00023385,"INCLINATION":87.9198,"RA_OF_ASC_NODE":298.7527,"ARG_OF_PERICENTER":84.7568,"MEAN_ANOMALY":275.3832,"EPHEMERIS_TYPE":0,"CLASSIFICATION_TYPE":"U","NORAD_CAT_ID":54672,"ELEMENT_SET_NO":999,"REV_AT_EPOCH":13527,"BSTAR":-4.2876858e-5,"MEAN_MOTION_DOT":-5.0e-8,"MEAN_MOTION_DDOT":0},{"OBJECT_NAME":"ONEWEB-0610","OBJECT_ID":"2022-166AH","EPOCH":"2025-09-15T13:29:33.040608","MEAN_MOTION":13.21825132,"ECCENTRICITY":0.00024074,"INCLINATION":87.9203,"RA_OF_ASC_NODE":298.7936,"ARG_OF_PERICENTER":83.3226,"MEAN_ANOMALY":276.8182,"EPHEMERIS_TYPE":0,"CLASSIFICATION_TYPE":"U","NORAD_CAT_ID":54673,"ELEMENT_SET_NO":999,"REV_AT_EPOCH":13517,"BSTAR":-2.2612161e-5,"MEAN_MOTION_DOT":4.0e-8,"MEAN_MOTION_DDOT":0},{"OBJECT_NAME":"ONEWEB-0611","OBJECT_ID":"2022-166AJ","EPOCH":"2025-09-15T13:20:25.125504","MEAN_MOTION":13.2182347,"ECCENTRICITY":0.00017589,"INCLINATION":87.9203,"RA_OF_ASC_NODE":298.7909,"ARG_OF_PERICENTER":98.8097,"MEAN_ANOMALY":261.3237,"EPHEMERIS_TYPE":0,"CLASSIFICATION_TYPE":"U","NORAD_CAT_ID":54674,"ELEMENT_SET_NO":999,"REV_AT_EPOCH":13516,"BSTAR":-2.9930575e-5,"MEAN_MOTION_DOT":1.0e-8,"MEAN_MOTION_DDOT":0},{"OBJECT_NAME":"ONEWEB-0612","OBJECT_ID":"2022-166AK","EPOCH":"2025-09-15T13:38:37.809888","MEAN_MOTION":13.21824206,"ECCENTRICITY":0.00020431,"INCLINATION":87.9204,"RA_OF_ASC_NODE":298.7662,"ARG_OF_PERICENTER":90.3926,"MEAN_ANOMALY":269.7442,"EPHEMERIS_TYPE":0,"CLASSIFICATION_TYPE":"U","NORAD_CAT_ID":54675,"ELEMENT_SET_NO":999,"REV_AT_EPOCH":13515,"BSTAR":8.9063322e-5,"MEAN_MOTION_DOT":5.0e-7,"MEAN_MOTION_DDOT":0}]
