ONEWEB-0594             
1 54660U 22166U   25258.57637463 -.00000054  00000+0 -16164-3 0  9992
2 54660  87.9204 298.8001 0001878  93.6834 266.4515 13.21824207135286
ONEWEB-0595             
1 54661U 22166V   25258.47858183  .00000036  00000+0  54726-4 0  9991
2 54661  87.9204 298.7948 0001909 100.3137 259.8212 13.21823221135244
ONEWEB-0596             
1 54662U 22166W   25258.60317493  .00000118  00000+0  25517-3 0  9997
2 54662  87.9202 298.7852 0002002  96.1019 264.0343 13.21823621135262
ONEWEB-0597             
1 54663U 22166X   25258.58426230  .00000011  00000+0 -46480-5 0  9992
2 54663  87.9206 298.7924 0001977  91.4068 268.7292 13.21823638135261
ONEWEB-0600             
1 54664U 22166Y   25258.56690834 -.00000013  00000+0 -62526-4 0  9995
2 54664  87.9197 298.7890 0001917  89.6017 270.5337 13.21823689135234
ONEWEB-0601             
1 54665U 22166Z   25258.48330103  .00000017  00000+0  94583-5 0  9998
2 54665  87.9203 298.8226 0002168  88.1082 272.0300 13.21822926135412
ONEWEB-0602             
1 54666U 22166AA  25258.59924469  .00000040  00000+0  64289-4 0  9990
2 54666  87.9204 298.8016 0001746  85.0830 275.0504 13.21824095135271
ONEWEB-0603             
1 54667U 22166AB  25258.60477588  .00000056  00000+0  10359-3 0  9993
2 54667  87.9205 298.7346 0002005  91.7054 268.4309 13.21827758135200
ONEWEB-0604             
1 54668U 22166AC  25258.59214495  .00000031  00000+0  43033-4 0  9997
2 54668  87.9205 298.7620 0001961  88.4264 271.7094 13.21824341135160
ONEWEB-0605             
1 54669U 22166AD  25258.58586478 -.00000072  00000+0 -20569-3 0  9995
2 54669  87.9202 298.7931 0002578  89.9494 270.1936 13.21828379135230
ONEWEB-0606             
1 54670U 22166AE  25258.60792498  .00000117  00000+0  25290-3 0  9995
2 54670  87.9203 298.7996 0001867 100.3868 259.7477 13.21824972135291
ONEWEB-0607             
1 54671U 22166AF  25258.57480439 -.00000061  00000+0 -18035-3 0  9990
2 54671  87.9201 298.7701 0001978  89.9848 270.1513 13.21823128135264
ONEWEB-0608             
1 54672U 22166AG  25258.58110325 -.00000005  00000+0 -42877-4 0  9996
2 54672  87.9198 298.7527 0002338  84.7568 275.3832 13.21824714135273
ONEWEB-0610             
1 54673U 22166AH  25258.56218797  .00000004  00000+0 -22612-4 0  9990
2 54673  87.9203 298.7936 0002407  83.3226 276.8182 13.21825132135176
ONEWEB-0611             
1 54674U 22166AJ  25258.55584636  .00000001  00000+0 -29931-4 0  9996
2 54674  87.9203 298.7909 0001758  98.8097 261.3237 13.21823470135164
ONEWEB-0612             
1 54675U 22166AK  25258.56849317  .00000050  00000+0  89063-4 0  9993
2 54675  87.9204 298.7662 0002043  90.3926 269.7442 13.21824206135155
